[{"OBJECT_NAME":"STARLINK-5950","OBJECT_ID":"2023-083AP","EPOCH":"2026-03-09T22:00:01.999584","MEAN_MOTION":15.09427905,"ECCENTRICITY":0.00019698,"INCLINATION":43.0011,"RA_OF_ASC_NODE":67.6777,"ARG_OF_PERICENTER":271.5612,"MEAN_ANOMALY":63.9854,"EPHEMERIS_TYPE":0,"CLASSIFICATION_TYPE":"U","NORAD_CAT_ID":56913,"ELEMENT_SET_NO":999,"REV_AT_EPOCH":572,"BSTAR":0.004564583,"MEAN_MOTION_DOT":0.00074844,"MEAN_MOTION_DDOT":0},{"OBJECT_NAME":"PEGASUS DEB","OBJECT_ID":"1994-029ED","EPOCH":"2026-03-09T22:32:35.369664","MEAN_MOTION":15.15581903,"ECCENTRICITY":0.00435925,"INCLINATION":81.9086,"RA_OF_ASC_NODE":82.9658,"ARG_OF_PERICENTER":180.8011,"MEAN_ANOMALY":179.3158,"EPHEMERIS_TYPE":0,"CLASSIFICATION_TYPE":"U","NORAD_CAT_ID":24082,"ELEMENT_SET_NO":999,"REV_AT_EPOCH":60530,"BSTAR":0.00058600752,"MEAN_MOTION_DOT":0.00011426,"MEAN_MOTION_DDOT":0}]
